NORAD_CAT_ID,OBJECT_NAME,OBJECT_TYPE,EPOCH,MEAN_MOTION,ECCENTRICITY,INCLINATION,RA_OF_ASC_NODE,ARG_OF_PERICENTER,MEAN_ANOMALY,BSTAR,MEAN_MOTION_DOT,MEAN_MOTION_DDOT,TLE_LINE0,TLE_LINE1,TLE_LINE2,SEMIMAJOR_AXIS,PERIOD,APOGEE,PERIGEE,DECAYED
55663.0,STARLINK-5473,PAYLOAD,2023-11-08 13:21:56,14.98322548,0.0002916,69.9988,152.9731,278.1564,81.9264,0.00034043,3.97e-05,0.0,0 STARLINK-5473,1 55663U 23021AM  23312.55690796  .00003970  00000-0  34043-3 0  9997,2 55663  69.9988 152.9731 0002916 278.1564  81.9264 14.98322548 41646,6950.216,96.107,574.108,570.054,0.0
55663.0,STARLINK-5473,PAYLOAD,2023-11-08 19:46:28,14.98329013,0.0002547,69.999,152.3001,275.2832,84.8037,0.00033386,3.893e-05,0.0,0 STARLINK-5473,1 55663U 23021AM  23312.82394476  .00003893  00000-0  33386-3 0  9996,2 55663  69.9990 152.3001 0002547 275.2832  84.8037 14.98329013 41384,6950.196,96.107,573.831,570.291,0.0
55663.0,STARLINK-5473,PAYLOAD,2023-11-08 21:22:36,14.98333564,0.000246,69.9986,152.1308,274.2059,85.8819,0.00026974,3.127e-05,0.0,0 STARLINK-5473,1 55663U 23021AM  23312.89070354  .00003127  00000-0  26974-3 0  9994,2 55663  69.9986 152.1308 0002460 274.2059  85.8819 14.98333564 41690,6950.182,96.107,573.757,570.337,0.0
55663.0,STARLINK-5473,PAYLOAD,2023-11-09 13:23:57,14.98339567,0.0002417,69.9987,150.449,278.0318,82.0566,6.929e-06,-1e-07,0.0,0 STARLINK-5473,1 55663U 23021AM  23313.55830678 -.00000010  00000-0  69290-5 0  9990,2 55663  69.9987 150.4490 0002417 278.0318  82.0566 14.98339567 41794,6950.163,96.106,573.708,570.348,0.0
55663.0,STARLINK-5473,PAYLOAD,2023-11-09 19:48:29,14.9833836,0.0002649,69.9986,149.7746,276.4118,83.6739,-2.8987e-05,-4.39e-06,0.0,0 STARLINK-5473,1 55663U 23021AM  23313.82534648 -.00000439  00000-0 -28987-4 0  9991,2 55663  69.9986 149.7746 0002649 276.4118  83.6739 14.98338360 41536,6950.167,96.106,573.873,570.191,0.0
55663.0,STARLINK-5473,PAYLOAD,2023-11-10 07:01:25,14.98351289,0.0002519,69.9991,148.5963,280.4119,79.6756,-0.00025966,-3.191e-05,0.0,0 STARLINK-5473,1 55663U 23021AM  23314.29266071 -.00003191  00000-0 -25966-3 0  9996,2 55663  69.9991 148.5963 0002519 280.4119  79.6756 14.98351289 41609,6950.127,96.106,573.743,570.241,0.0
55663.0,STARLINK-5473,PAYLOAD,2023-11-10 15:02:06,14.98340464,0.0002489,69.999,147.7547,275.7695,84.3181,-7.326e-05,-9.67e-06,0.0,0 STARLINK-5473,1 55663U 23021AM  23314.62646129 -.00000967  00000-0 -73260-4 0  9998,2 55663  69.9990 147.7547 0002489 275.7695  84.3181 14.98340464 41955,6950.161,96.106,573.755,570.296,0.0
55663.0,STARLINK-5473,PAYLOAD,2023-11-10 19:50:30,14.98340615,0.0002508,69.9991,147.2498,275.91,84.1773,-6.5959e-05,-8.8e-06,0.0,0 STARLINK-5473,1 55663U 23021AM  23314.82673958 -.00000880  00000-0 -65959-4 0  9990,2 55663  69.9991 147.2498 0002508 275.9100  84.1773 14.98340615 41684,6950.16,96.106,573.768,570.282,0.0
55663.0,STARLINK-5473,PAYLOAD,2023-11-10 21:26:38,14.98339496,0.0002531,69.9991,147.0816,276.1221,83.965,-7.6842e-05,-1.01e-05,0.0,0 STARLINK-5473,1 55663U 23021AM  23314.89350008 -.00001010  00000-0 -76842-4 0  9994,2 55663  69.9991 147.0816 0002531 276.1221  83.9650 14.98339496 41999,6950.164,96.106,573.788,570.269,0.0
55663.0,STARLINK-5473,PAYLOAD,2023-11-11 13:27:58,14.983337,0.0002582,69.999,145.3985,275.8988,84.1877,-9.8583e-06,-2.11e-06,0.0,0 STARLINK-5473,1 55663U 23021AM  23315.56109864 -.00000211  00000-0 -98583-5 0  9990,2 55663  69.9990 145.3985 0002582 275.8988  84.1877 14.98333700 42096,6950.181,96.107,573.841,570.252,0.0
55663.0,STARLINK-5473,PAYLOAD,2023-11-11 19:52:31,14.98333871,0.0002587,69.999,144.7252,275.888,84.1984,-5.8948e-06,-1.63e-06,0.0,0 STARLINK-5473,1 55663U 23021AM  23315.82813762 -.00000163  00000-0 -58948-5 0  9995,2 55663  69.9990 144.7252 0002587 275.8880  84.1984 14.98333871 41831,6950.181,96.107,573.844,570.248,0.0
55663.0,STARLINK-5473,PAYLOAD,2023-11-11 21:28:39,14.98333805,0.0002585,69.999,144.5569,275.9363,84.1501,-6.7076e-06,-1.73e-06,0.0,0 STARLINK-5473,1 55663U 23021AM  23315.89489743 -.00000173  00000-0 -67076-5 0  9993,2 55663  69.9990 144.5569 0002585 275.9363  84.1501 14.98333805 42142,6950.181,96.107,573.843,570.25,0.0
55663.0,STARLINK-5473,PAYLOAD,2023-11-12 13:29:59,14.98332654,0.0002581,69.999,142.8738,275.5429,84.5436,-1.7034e-05,-2.96e-06,0.0,0 STARLINK-5473,1 55663U 23021AM  23316.56249689 -.00000296  00000-0 -17034-4 0  9995,2 55663  69.9990 142.8738 0002581 275.5429  84.5436 14.98332654 42249,6950.185,96.107,573.844,570.256,0.0
55663.0,STARLINK-5473,PAYLOAD,2023-11-12 21:30:39,14.98332833,0.0002557,69.9991,142.0323,274.9631,85.1236,-8.9123e-06,-1.99e-06,0.0,0 STARLINK-5473,1 55663U 23021AM  23316.89629575 -.00000199  00000-0 -89123-5 0  9998,2 55663  69.9991 142.0323 0002557 274.9631  85.1236 14.98332833 42292,6950.184,96.107,573.826,570.272,0.0
55663.0,STARLINK-5473,PAYLOAD,2023-11-12 23:06:47,14.98332989,0.0002557,69.9991,141.864,274.998,85.0887,-7.0101e-06,-1.77e-06,0.0,0 STARLINK-5473,1 55663U 23021AM  23316.96305545 -.00000177  00000-0 -70101-5 0  9996,2 55663  69.9991 141.8640 0002557 274.9980  85.0887 14.98332989 42000,6950.184,96.107,573.826,570.271,0.0
55663.0,STARLINK-5473,PAYLOAD,2023-11-13 11:55:52,14.98331623,0.0002539,69.9991,140.5176,272.3221,87.7647,-7.0899e-06,-1.78e-06,0.0,0 STARLINK-5473,1 55663U 23021AM  23317.49713533 -.00000178  00000-0 -70899-5 0  9990,2 55663  69.9991 140.5176 0002539 272.3221  87.7647 14.98331623 42388,6950.188,96.107,573.818,570.288,0.0
55663.0,STARLINK-5473,PAYLOAD,2023-11-13 18:20:24,14.98331082,0.0002559,69.999,139.8442,273.2109,86.8757,-1.4046e-05,-2.61e-06,0.0,0 STARLINK-5473,1 55663U 23021AM  23317.76417549 -.00000261  00000-0 -14046-4 0  9992,2 55663  69.9990 139.8442 0002559 273.2109  86.8757 14.98331082 42427,6950.19,96.107,573.833,570.276,0.0
55663.0,STARLINK-5473,PAYLOAD,2023-11-14 11:57:53,14.98330723,0.0002562,69.9989,137.9924,272.9571,87.1295,-1.0396e-05,-2.17e-06,0.0,0 STARLINK-5473,1 55663U 23021AM  23318.49853501 -.00000217  00000-0 -10396-4 0  9990,2 55663  69.9989 137.9924 0002562 272.9571  87.1295 14.98330723 42233,6950.191,96.107,573.836,570.275,0.0
55663.0,STARLINK-5473,PAYLOAD,2023-11-14 13:34:01,14.98330571,0.000257,69.9989,137.8241,272.8833,87.2032,-1.2495e-05,-2.42e-06,0.0,0 STARLINK-5473,1 55663U 23021AM  23318.56529507 -.00000242  00000-0 -12495-4 0  9994,2 55663  69.9989 137.8241 0002570 272.8833  87.2032 14.98330571 42548,6950.191,96.107,573.842,570.27,0.0
55663.0,STARLINK-5473,PAYLOAD,2023-11-14 18:22:25,14.98330227,0.0002579,69.999,137.3191,272.852,87.2344,-1.5416e-05,-2.77e-06,0.0,0 STARLINK-5473,1 55663U 23021AM  23318.76557521 -.00000277  00000-0 -15416-4 0  9997,2 55663  69.9990 137.3191 0002579 272.8520  87.2344 14.98330227 42578,6950.192,96.107,573.85,570.265,0.0
55663.0,STARLINK-5473,PAYLOAD,2023-11-15 11:59:54,14.98328625,0.0002594,69.9988,135.4674,273.0399,87.0463,-3.0451e-06,-1.29e-06,0.0,0 STARLINK-5473,1 55663U 23021AM  23319.49993573 -.00000129  00000-0 -30451-5 0  9992,2 55663  69.9988 135.4674 0002594 273.0399  87.0463 14.98328625 42382,6950.197,96.107,573.865,570.259,0.0
55663.0,STARLINK-5473,PAYLOAD,2023-11-15 13:36:02,14.98328867,0.0002603,69.999,135.2991,272.9099,87.1762,1.0523e-06,-8e-07,0.0,0 STARLINK-5473,1 55663U 23021AM  23319.56669546 -.00000080  00000-0  10523-5 0  9993,2 55663  69.9990 135.2991 0002603 272.9099  87.1762 14.98328867 42696,6950.196,96.107,573.871,570.252,0.0
55663.0,STARLINK-5473,PAYLOAD,2023-11-15 18:24:26,14.98329203,0.0002615,69.999,134.7942,273.242,86.844,-4.769e-06,-1.5e-06,0.0,0 STARLINK-5473,1 55663U 23021AM  23319.76697548 -.00000150  00000-0 -47690-5 0  9992,2 55663  69.9990 134.7942 0002615 273.2420  86.8440 14.98329203 42729,6950.195,96.107,573.878,570.243,0.0
55663.0,STARLINK-5473,PAYLOAD,2023-11-16 18:26:27,14.98330557,0.000273,69.9986,132.2691,273.8453,86.2394,1.7807e-05,1.19e-06,0.0,0 STARLINK-5473,1 55663U 23021AM  23320.76837364  .00000119  00000-0  17807-4 0  9995,2 55663  69.9986 132.2691 0002730 273.8453  86.2394 14.98330557 42577,6950.191,96.107,573.954,570.159,0.0
55663.0,STARLINK-5473,PAYLOAD,2023-11-16 21:38:43,14.98330641,0.0002755,69.9983,131.9323,274.0957,85.9887,1.85e-05,1.28e-06,0.0,0 STARLINK-5473,1 55663U 23021AM  23320.90189347  .00000128  00000-0  18500-4 0  9993,2 55663  69.9983 131.9323 0002755 274.0957  85.9887 14.98330641 42893,6950.191,96.107,573.971,570.141,0.0
55663.0,STARLINK-5473,PAYLOAD,2023-11-17 13:40:04,14.98329866,0.0002728,69.9986,130.249,274.6686,85.4161,7.5125e-06,-3e-08,0.0,0 STARLINK-5473,1 55663U 23021AM  23321.56949415 -.00000003  00000-0  75125-5 0  9996,2 55663  69.9986 130.2490 0002728 274.6686  85.4161 14.98329866 42996,6950.193,96.107,573.954,570.162,0.0
55663.0,STARLINK-5473,PAYLOAD,2023-11-17 18:28:28,14.98330717,0.0002738,69.9985,129.744,274.7052,85.3794,1.6392e-05,1.03e-06,0.0,0 STARLINK-5473,1 55663U 23021AM  23321.76977327  .00000103  00000-0  16392-4 0  9991,2 55663  69.9985 129.7440 0002738 274.7052  85.3794 14.98330717 42721,6950.191,96.107,573.959,570.153,0.0
55663.0,STARLINK-5473,PAYLOAD,2023-11-18 12:05:57,14.98329741,0.0002702,69.9985,127.8924,275.0373,85.0478,1.9765e-06,-6.9e-07,0.0,0 STARLINK-5473,1 55663U 23021AM  23322.50413390 -.00000069  00000-0  19765-5 0  9999,2 55663  69.9985 127.8924 0002702 275.0373  85.0478 14.98329741 43135,6950.194,96.107,573.937,570.181,0.0
55663.0,STARLINK-5473,PAYLOAD,2023-11-19 04:07:17,14.98330296,0.0002693,69.9984,126.2091,275.07,85.0152,7.731e-06,-1e-08,0.0,0 STARLINK-5473,1 55663U 23021AM  23323.17173306 -.00000001  00000-0  77310-5 0  9999,2 55663  69.9984 126.2091 0002693 275.0700  85.0152 14.98330296 42938,6950.192,96.107,573.929,570.185,0.0
55663.0,STARLINK-5473,PAYLOAD,2023-11-19 13:44:06,14.98331231,0.0002703,69.9984,125.1992,274.3311,85.7539,9.3426e-06,1.8e-07,0.0,0 STARLINK-5473,1 55663U 23021AM  23323.57229204  .00000018  00000-0  93426-5 0  9995,2 55663  69.9984 125.1992 0002703 274.3311  85.7539 14.98331231 43294,6950.189,96.107,573.933,570.175,0.0
